{"fetched_at":"2026-03-29T02:12:04Z","count":15717,"tles":[{"name":"BEIDOU-2 IGSO-1 (C06)","line1":"1 36828U 10036A   26078.94574244 -.00000103  00000+0  00000+0 0  9992","line2":"2 36828  54.2916 163.7709 0054955 219.8858 238.0541  1.00248068 57204","category":"GPS"}]}